{
"type": "FeatureCollection",
"name": "water_lines",
"crs": { "type": "name", "properties": { "name": "urn:ogc:def:crs:OGC:1.3:CRS84" } },
"features": [
{ "type": "Feature", "properties": { "osm_id": 130275669, "waterway": "river", "name": "Дніпро", "name:en": "Dnipro", "int_name": "Dnieper", "description": "A 2,285km river that flows from Russia, through Belarus and Ukraine, to the Black Sea.", "CEMT": "Vb", "name:de": "Dnjepr", "name:ro": "Nipru", "name:uk": "Дніпро", "name:ru": "Днепр", "name:be": "Дняпро", "name:pl": "Dniepr", "name:hu": "Dnyeper", "boat": "yes" }, "geometry": { "type": "LineString", "coordinates": [ [ 30.5422695, 50.483758 ], [ 30.5424008, 50.4825969 ], [ 30.5414574, 50.4790506 ], [ 30.5391357, 50.4764249 ], [ 30.5364063, 50.4738265 ], [ 30.5301829, 50.4688547 ], [ 30.5291791, 50.4672675 ], [ 30.5289561, 50.4655451 ], [ 30.5291194, 50.4636042 ], [ 30.5296978, 50.4616128 ], [ 30.5305338, 50.4600586 ], [ 30.5314687, 50.4588799 ], [ 30.5326611, 50.4577011 ], [ 30.5349003, 50.4563027 ], [ 30.5382982, 50.4550409 ] ] } }
]
}
